start=new Date('2023-02-02T00:00:00.000Z').valueOf();
sats=[{"PERIAPSIS":"561.316","DECAY_DATE":null,"ARG_OF_PERICENTER":"104.2565","MEAN_MOTION_DOT":"0.00002135","CENTER_NAME":"EARTH","FILE":"3767639","LAUNCH_DATE":"2022-07-22","MEAN_ELEMENT_THEORY":"SGP4","REV_AT_EPOCH":"2949","INCLINATION":"97.6553","CLASSIFICATION_TYPE":"U","ELEMENT_SET_NO":"999","SITE":"AFWTR","EPHEMERIS_TYPE":"0","SEMIMAJOR_AXIS":"6941.165","BSTAR":"0.00017081000000","REF_FRAME":"TEME","MEAN_MOTION_DDOT":"0.0000000000000","GP_ID":"224203664","RA_OF_ASC_NODE":"95.7771","OBJECT_ID":"2022-084AQ","TLE_LINE2":"2 53227  97.6553  95.7771 0002470 104.2565 255.8934 15.01253951 29490","TLE_LINE1":"1 53227U 22084AQ  23032.76483587  .00002135  00000-0  17081-3 0  9994","COUNTRY_CODE":"US","EPOCH":"2023-02-01T18:21:21.819168","RCS_SIZE":"LARGE","APOAPSIS":"564.745","OBJECT_TYPE":"PAYLOAD","OBJECT_NAME":"STARLINK-4366","PERIOD":"95.920","MEAN_MOTION":"15.01253951","NORAD_CAT_ID":"53227","MEAN_ANOMALY":"255.8934","ECCENTRICITY":"0.00024700","TIME_SYSTEM":"UTC"},{"PERIOD":"95.920","MEAN_MOTION":"15.01256922","OBJECT_NAME":"STARLINK-4365","ECCENTRICITY":"0.00027060","TIME_SYSTEM":"UTC","MEAN_ANOMALY":"273.1802","NORAD_CAT_ID":"53228","EPOCH":"2023-02-01T18:29:00.642912","COUNTRY_CODE":"US","TLE_LINE1":"1 53228U 22084AR  23032.77014633 -.00000796  00000-0 -57413-4 0  9995","OBJECT_TYPE":"PAYLOAD","APOAPSIS":"564.900","RCS_SIZE":"LARGE","MEAN_MOTION_DDOT":"0.0000000000000","BSTAR":"-0.00005741300000","REF_FRAME":"TEME","SEMIMAJOR_AXIS":"6941.156","SITE":"AFWTR","EPHEMERIS_TYPE":"0","TLE_LINE2":"2 53228  97.6528  95.7902 0002706  86.9731 273.1802 15.01256922 29490","RA_OF_ASC_NODE":"95.7902","OBJECT_ID":"2022-084AR","GP_ID":"224203163","CENTER_NAME":"EARTH","FILE":"3767639","LAUNCH_DATE":"2022-07-22","MEAN_MOTION_DOT":"-0.00000796","ARG_OF_PERICENTER":"86.9731","DECAY_DATE":null,"PERIAPSIS":"561.143","ELEMENT_SET_NO":"999","CLASSIFICATION_TYPE":"U","INCLINATION":"97.6528","REV_AT_EPOCH":"2949","MEAN_ELEMENT_THEORY":"SGP4"},{"RCS_SIZE":"LARGE","OBJECT_TYPE":"PAYLOAD","APOAPSIS":"564.488","COUNTRY_CODE":"US","EPOCH":"2023-02-01T18:20:59.812224","TLE_LINE1":"1 53229U 22084AS  23032.76458116 -.00003399  00000-0 -26021-3 0  9995","ECCENTRICITY":"0.00020790","TIME_SYSTEM":"UTC","NORAD_CAT_ID":"53229","MEAN_ANOMALY":"269.3337","PERIOD":"95.920","MEAN_MOTION":"15.01249152","OBJECT_NAME":"STARLINK-4367","CLASSIFICATION_TYPE":"U","ELEMENT_SET_NO":"999","MEAN_ELEMENT_THEORY":"SGP4","REV_AT_EPOCH":"2949","INCLINATION":"97.6543","MEAN_MOTION_DOT":"-0.00003399","FILE":"3767639","LAUNCH_DATE":"2022-07-22","CENTER_NAME":"EARTH","PERIAPSIS":"561.602","DECAY_DATE":null,"ARG_OF_PERICENTER":"90.8125","OBJECT_ID":"2022-084AS","RA_OF_ASC_NODE":"95.7728","TLE_LINE2":"2 53229  97.6543  95.7728 0002079  90.8125 269.3337 15.01249152 29495","GP_ID":"224203663","SEMIMAJOR_AXIS":"6941.180","BSTAR":"-0.00026021000000","REF_FRAME":"TEME","MEAN_MOTION_DDOT":"0.0000000000000","SITE":"AFWTR","EPHEMERIS_TYPE":"0"},{"OBJECT_NAME":"STARLINK-4364","PERIOD":"95.919","MEAN_MOTION":"15.01263811","MEAN_ANOMALY":"259.0227","NORAD_CAT_ID":"53230","TIME_SYSTEM":"UTC","ECCENTRICITY":"0.00019160","TLE_LINE1":"1 53230U 22084AT  23032.56648075  .00000743  00000-0  62392-4 0  9990","COUNTRY_CODE":"US","EPOCH":"2023-02-01T13:35:43.936800","OBJECT_TYPE":"PAYLOAD","APOAPSIS":"564.330","RCS_SIZE":"LARGE","SITE":"AFWTR","EPHEMERIS_TYPE":"0","MEAN_MOTION_DDOT":"0.0000000000000","SEMIMAJOR_AXIS":"6941.135","REF_FRAME":"TEME","BSTAR":"0.00006239200000","GP_ID":"224203161","TLE_LINE2":"2 53230  97.6538  95.5822 0001916 101.1212 259.0227 15.01263811 29847","OBJECT_ID":"2022-084AT","RA_OF_ASC_NODE":"95.5822","ARG_OF_PERICENTER":"101.1212","DECAY_DATE":null,"PERIAPSIS":"561.670","LAUNCH_DATE":"2022-07-22","FILE":"3767639","CENTER_NAME":"EARTH","MEAN_MOTION_DOT":"0.00000743","INCLINATION":"97.6538","REV_AT_EPOCH":"2984","MEAN_ELEMENT_THEORY":"SGP4","CLASSIFICATION_TYPE":"U","ELEMENT_SET_NO":"999"},{"REF_FRAME":"TEME","BSTAR":"0.00001936500000","SEMIMAJOR_AXIS":"6941.140","MEAN_MOTION_DDOT":"0.0000000000000","SITE":"AFWTR","EPHEMERIS_TYPE":"0","RA_OF_ASC_NODE":"95.1805","OBJECT_ID":"2022-084AU","TLE_LINE2":"2 53231  97.6534  95.1805 0001642 103.8982 256.2425 15.01262359 29407","GP_ID":"224199153","MEAN_MOTION_DOT":"0.00000190","FILE":"3767525","LAUNCH_DATE":"2022-07-22","CENTER_NAME":"EARTH","PERIAPSIS":"561.865","DECAY_DATE":null,"ARG_OF_PERICENTER":"103.8982","ELEMENT_SET_NO":"999","CLASSIFICATION_TYPE":"U","INCLINATION":"97.6534","REV_AT_EPOCH":"2940","MEAN_ELEMENT_THEORY":"SGP4","PERIOD":"95.919","MEAN_MOTION":"15.01262359","OBJECT_NAME":"STARLINK-4370","TIME_SYSTEM":"UTC","ECCENTRICITY":"0.00016420","NORAD_CAT_ID":"53231","MEAN_ANOMALY":"256.2425","EPOCH":"2023-02-01T03:51:51.270048","COUNTRY_CODE":"US","TLE_LINE1":"1 53231U 22084AU  23032.16101007  .00000190  00000-0  19365-4 0  9994","RCS_SIZE":"LARGE","APOAPSIS":"564.144","OBJECT_TYPE":"PAYLOAD"},{"COUNTRY_CODE":"US","EPOCH":"2023-02-01T03:54:30.876768","TLE_LINE1":"1 53232U 22084AV  23032.16285737  .00001526  00000-0  12337-3 0  9993","OBJECT_TYPE":"PAYLOAD","APOAPSIS":"564.039","RCS_SIZE":"LARGE","MEAN_MOTION":"15.01269810","PERIOD":"95.919","OBJECT_NAME":"STARLINK-4371","TIME_SYSTEM":"UTC","ECCENTRICITY":"0.00015240","MEAN_ANOMALY":"261.0020","NORAD_CAT_ID":"53232","FILE":"3767525","CENTER_NAME":"EARTH","LAUNCH_DATE":"2022-07-22","MEAN_MOTION_DOT":"0.00001526","ARG_OF_PERICENTER":"99.1376","PERIAPSIS":"561.924","DECAY_DATE":null,"ELEMENT_SET_NO":"999","CLASSIFICATION_TYPE":"U","REV_AT_EPOCH":"2940","MEAN_ELEMENT_THEORY":"SGP4","INCLINATION":"97.6542","MEAN_MOTION_DDOT":"0.0000000000000","SEMIMAJOR_AXIS":"6941.117","BSTAR":"0.00012337000000","REF_FRAME":"TEME","EPHEMERIS_TYPE":"0","SITE":"AFWTR","TLE_LINE2":"2 53232  97.6542  95.1780 0001524  99.1376 261.0020 15.01269810 29406","OBJECT_ID":"2022-084AV","RA_OF_ASC_NODE":"95.1780","GP_ID":"224199403"},{"ARG_OF_PERICENTER":"107.4232","PERIAPSIS":"561.948","DECAY_DATE":null,"FILE":"3767640","LAUNCH_DATE":"2022-07-22","CENTER_NAME":"EARTH","MEAN_MOTION_DOT":"0.00001622","INCLINATION":"97.6565","REV_AT_EPOCH":"2940","MEAN_ELEMENT_THEORY":"SGP4","CLASSIFICATION_TYPE":"U","ELEMENT_SET_NO":"999","SITE":"AFWTR","EPHEMERIS_TYPE":"0","MEAN_MOTION_DDOT":"0.0000000000000","BSTAR":"0.00013079000000","REF_FRAME":"TEME","SEMIMAJOR_AXIS":"6941.119","GP_ID":"224203675","TLE_LINE2":"2 53233  97.6565  95.1654 0001492 107.4232 252.7156 15.01269180 29407","RA_OF_ASC_NODE":"95.1654","OBJECT_ID":"2022-084AW","TLE_LINE1":"1 53233U 22084AW  23032.15915622  .00001622  00000-0  13079-3 0  9997","EPOCH":"2023-02-01T03:49:11.097408","COUNTRY_CODE":"US","OBJECT_TYPE":"PAYLOAD","APOAPSIS":"564.019","RCS_SIZE":"LARGE","OBJECT_NAME":"STARLINK-4372","PERIOD":"95.919","MEAN_MOTION":"15.01269180","MEAN_ANOMALY":"252.7156","NORAD_CAT_ID":"53233","TIME_SYSTEM":"UTC","ECCENTRICITY":"0.00014920"},{"TLE_LINE2":"2 53234  97.6567  95.1654 0001545 108.1004 252.0389 15.01268344 30419","RA_OF_ASC_NODE":"95.1654","OBJECT_ID":"2022-084AX","GP_ID":"224200905","MEAN_MOTION_DDOT":"0.0000000000000","REF_FRAME":"TEME","BSTAR":"0.00002910900000","SEMIMAJOR_AXIS":"6941.121","SITE":"AFWTR","EPHEMERIS_TYPE":"0","CLASSIFICATION_TYPE":"U","ELEMENT_SET_NO":"999","REV_AT_EPOCH":"3041","INCLINATION":"97.6567","MEAN_ELEMENT_THEORY":"SGP4","LAUNCH_DATE":"2022-07-22","FILE":"3767525","CENTER_NAME":"EARTH","MEAN_MOTION_DOT":"0.00000315","ARG_OF_PERICENTER":"108.1004","DECAY_DATE":null,"PERIAPSIS":"561.914","TIME_SYSTEM":"UTC","ECCENTRICITY":"0.00015450","MEAN_ANOMALY":"252.0389","NORAD_CAT_ID":"53234","MEAN_MOTION":"15.01268344","PERIOD":"95.919","OBJECT_NAME":"STARLINK-4368","APOAPSIS":"564.059","OBJECT_TYPE":"PAYLOAD","RCS_SIZE":"LARGE","EPOCH":"2023-02-01T03:46:52.151520","COUNTRY_CODE":"US","TLE_LINE1":"1 53234U 22084AX  23032.15754805  .00000315  00000-0  29109-4 0  9992"},{"CENTER_NAME":"EARTH","FILE":"3767648","LAUNCH_DATE":"2022-07-24","MEAN_MOTION_DOT":"-0.00015368","ARG_OF_PERICENTER":"67.1075","DECAY_DATE":null,"PERIAPSIS":"537.657","ELEMENT_SET_NO":"999","CLASSIFICATION_TYPE":"U","INCLINATION":"53.2121","REV_AT_EPOCH":"2992","MEAN_ELEMENT_THEORY":"SGP4","MEAN_MOTION_DDOT":"0.0000000000000","SEMIMAJOR_AXIS":"6916.703","BSTAR":"-0.00093953000000","REF_FRAME":"TEME","SITE":"AFETR","EPHEMERIS_TYPE":"0","TLE_LINE2":"2 53242  53.2121 240.6922 0001317  67.1075 293.0056 15.09225346 29929","RA_OF_ASC_NODE":"240.6922","OBJECT_ID":"2022-086A","GP_ID":"224203293","COUNTRY_CODE":"US","EPOCH":"2023-02-01T17:27:08.056512","TLE_LINE1":"1 53242U 22086A   23032.72717658 -.00015368  00000-0 -93953-3 0  9994","APOAPSIS":"539.479","OBJECT_TYPE":"PAYLOAD","RCS_SIZE":"LARGE","PERIOD":"95.413","MEAN_MOTION":"15.09225346","OBJECT_NAME":"STARLINK-4056","TIME_SYSTEM":"UTC","ECCENTRICITY":"0.00013170","MEAN_ANOMALY":"293.0056","NORAD_CAT_ID":"53242"},{"REV_AT_EPOCH":"2985","MEAN_ELEMENT_THEORY":"SGP4","INCLINATION":"53.2164","ELEMENT_SET_NO":"999","CLASSIFICATION_TYPE":"U","ARG_OF_PERICENTER":"87.3792","DECAY_DATE":null,"PERIAPSIS":"538.866","LAUNCH_DATE":"2022-07-24","FILE":"3767683","CENTER_NAME":"EARTH","MEAN_MOTION_DOT":"0.00000303","GP_ID":"224203315","TLE_LINE2":"2 53243  53.2164 245.6816 0001280  87.3792 272.7347 15.08837877 29859","RA_OF_ASC_NODE":"245.6816","OBJECT_ID":"2022-086B","EPHEMERIS_TYPE":"0","SITE":"AFETR","MEAN_MOTION_DDOT":"0.0000000000000","BSTAR":"0.00003709700000","REF_FRAME":"TEME","SEMIMAJOR_AXIS":"6917.887","OBJECT_TYPE":"PAYLOAD","APOAPSIS":"540.637","RCS_SIZE":"LARGE","TLE_LINE1":"1 53243U 22086B   23032.72844845  .00000303  00000-0  37097-4 0  9993","EPOCH":"2023-02-01T17:28:57.946080","COUNTRY_CODE":"US","MEAN_ANOMALY":"272.7347","NORAD_CAT_ID":"53243","TIME_SYSTEM":"UTC","ECCENTRICITY":"0.00012800","OBJECT_NAME":"STARLINK-4047","PERIOD":"95.438","MEAN_MOTION":"15.08837877"}];
